STARLINK-5954           
1 56318U 23058B   24233.59478309  .00000624  00000+0  53150-4 0  9999
2 56318  97.6531 233.4478 0004157  76.1571 284.0115 15.01266243 72843
STARLINK-6039           
1 56319U 23058C   24233.59293179  .00001090  00000+0  89438-4 0  9996
2 56319  97.6533 233.4465 0003679  87.6381 272.5264 15.01264457 72848
STARLINK-5988           
1 56320U 23058D   24233.59873350  .00000512  00000+0  44462-4 0  9999
2 56320  97.6540 233.4487 0004632  84.2770 275.8983 15.01265266 72851
STARLINK-5876           
1 56321U 23058E   24233.58737007  .00011485  00000+0  89696-3 0  9995
2 56321  97.6520 233.4521 0001575 127.2443 232.8925 15.01275673 72848
STARLINK-6033           
1 56322U 23058F   24233.59664031  .00000704  00000+0  59396-4 0  9990
2 56322  97.6532 233.4486 0005125  82.6414 277.5392 15.01262572 72847
STARLINK-6035           
1 56323U 23058G   24233.58922392  .00000540  00000+0  46593-4 0  9990
2 56323  97.6544 233.4491 0002270  87.4505 272.6979 15.01264679 72835
STARLINK-6034           
1 56324U 23058H   24233.59108037  .00000619  00000+0  52796-4 0  9993
2 56324  97.6543 233.4474 0003769  89.1665 270.9991 15.01263400 72708
STARLINK-5981           
1 56325U 23058J   24233.58181288  .00000304  00000+0  28258-4 0  9999
2 56325  97.6544 233.4580 0000556 133.4287 226.6983 15.01263983 72707
STARLINK-5980           
1 56326U 23058K   24233.52467279  .00000908  00000+0  75293-4 0  9992
2 56326  97.6542 233.3809 0003858  90.2249 269.9418 15.01263396 72830
STARLINK-5997           
1 56327U 23058L   24233.57650059  .00000094  00000+0  11889-4 0  9995
2 56327  97.6545 233.4646 0000850 184.1922 175.9295 15.01263594 73193
STARLINK-5992           
1 56328U 23058M   24233.58366657  .00000643  00000+0  54615-4 0  9999
2 56328  97.6539 233.4562 0000762 106.6003 253.5305 15.01262531 73190
STARLINK-5984           
1 56329U 23058N   24233.57997856  .00001766  00000+0  14210-3 0  9993
2 56329  97.6538 233.4610 0000529 185.5455 174.5763 15.01251394 73197
STARLINK-5967           
1 56330U 23058P   24233.58391120 -.00000137  00000+0 -61135-5 0  9991
2 56330  97.6546 233.4565 0000749  99.1116 261.0193 15.01262478 73199
STARLINK-5991           
1 56331U 23058Q   24233.57440464 -.00000094  00000+0 -27396-5 0  9990
2 56331  97.6546 233.4672 0001877 181.5393 178.5825 15.01262968 73193
STARLINK-5093           
1 56332U 23058R   24233.58550118 -.00018374  00000+0 -14263-2 0  9996
2 56332  97.6562 233.4569 0001410  58.9949 301.1413 15.01350024 72708
STARLINK-5553           
1 56333U 23058S   24233.57255399  .00000167  00000+0  17575-4 0  9999
2 56333  97.6548 233.4696 0002090 167.6645 192.4631 15.01263216 73193
STARLINK-5548           
1 56334U 23058T   24233.57625488 -.00000183  00000+0 -96784-5 0  9990
2 56334  97.6546 233.4648 0001500 190.4668 169.6525 15.01264199 72708
STARLINK-5559           
1 56335U 23058U   24233.56724546  .00000164  00000+0  17383-4 0  9999
2 56335  97.6554 233.4772 0001290 122.4195 237.7154 15.01263609 72702
STARLINK-5562           
1 56336U 23058V   24233.57810748 -.00000077  00000+0 -13730-5 0  9999
2 56336  97.6545 233.4627 0001170 188.7792 171.3412 15.01263447 73191
STARLINK-5561           
1 56337U 23058W   24233.56909758  .00001068  00000+0  87708-4 0  9993
2 56337  97.6550 233.4747 0001788 139.7858 220.3498 15.01263286 73195
STARLINK-5554           
1 56338U 23058X   24233.57070288  .00000183  00000+0  18837-4 0  9996
2 56338  97.6550 233.4724 0001689 153.3578 206.7734 15.01263442 73197
STARLINK-5552           
1 56339U 23058Y   24233.56328857 -.00004950  00000+0 -38088-3 0  9991
2 56339  97.6571 233.4855 0001298  91.2843 268.8530 15.01280201 73192
STARLINK-5540           
1 56340U 23058Z   24233.56885284  .00001308  00000+0  10643-3 0  9994
2 56340  97.6552 233.4751 0002355 146.9786 213.1585 15.01257640 73191
STARLINK-5543           
1 56341U 23058AA  24233.56699992  .00000396  00000+0  35439-4 0  9991
2 56341  97.6553 233.4786 0001504 133.6999 226.4350 15.01264572 73194
STARLINK-5955           
1 56342U 23058AB  24233.56514813  .00000645  00000+0  54789-4 0  9996
2 56342  97.6554 233.4814 0001352 117.7729 242.3632 15.01264819 72703
STARLINK-5976           
1 56343U 23058AC  24233.55775459  .00005603  00000+0  44035-3 0  9992
2 56343  97.6574 233.5015 0001721  84.3166 275.8254 15.01271662 73193
STARLINK-5974           
1 56344U 23058AD  24233.56144534  .00000649  00000+0  55144-4 0  9997
2 56344  97.6583 233.4917 0001399  90.6008 269.5376 15.01262780 73196
STARLINK-5979           
1 56345U 23058AE  24233.88914951  .00001695  00000+0  13651-3 0  9999
2 56345  97.6573 233.8347 0001797  83.9909 276.1520 15.01268269 72758
STARLINK-5837           
1 56346U 23058AF  24233.55959364  .00000103  00000+0  12579-4 0  9993
2 56346  97.6581 233.4964 0001751  93.0070 267.1354 15.01266033 73191
STARLINK-5829           
1 56347U 23058AG  24233.55405608 -.00001173  00000+0 -86759-4 0  9992
2 56347  97.6570 233.5102 0001798  93.2991 266.8438 15.01247807 73197
