OBJECT_NAME,OBJECT_ID,EPOCH,MEAN_MOTION,ECCENTRICITY,INCLINATION,RA_OF_ASC_NODE,ARG_OF_PERICENTER,MEAN_ANOMALY,EPHEMERIS_TYPE,CLASSIFICATION_TYPE,NORAD_CAT_ID,ELEMENT_SET_NO,REV_AT_EPOCH,BSTAR,MEAN_MOTION_DOT,MEAN_MOTION_DDOT
STARLINK-5954,2023-058B,2024-08-20T14:16:29.258976,15.01266243,.0004157,97.6531,233.4478,76.1571,284.0115,0,U,56318,999,7284,.5315E-4,.624E-5,0
STARLINK-6039,2023-058C,2024-08-20T14:13:49.306656,15.01264457,.0003679,97.6533,233.4465,87.6381,272.5264,0,U,56319,999,7284,.89438E-4,.109E-4,0
STARLINK-5988,2023-058D,2024-08-20T14:22:10.574400,15.01265266,.0004632,97.6540,233.4487,84.2770,275.8983,0,U,56320,999,7285,.44462E-4,.512E-5,0
STARLINK-5876,2023-058E,2024-08-20T14:05:48.774048,15.01275673,.0001575,97.6520,233.4521,127.2443,232.8925,0,U,56321,999,7284,.89696E-3,.11485E-3,0
STARLINK-6033,2023-058F,2024-08-20T14:19:09.722784,15.01262572,.0005125,97.6532,233.4486,82.6414,277.5392,0,U,56322,999,7284,.59396E-4,.704E-5,0
STARLINK-6035,2023-058G,2024-08-20T14:08:28.946688,15.01264679,.000227,97.6544,233.4491,87.4505,272.6979,0,U,56323,999,7283,.46593E-4,.54E-5,0
STARLINK-6034,2023-058H,2024-08-20T14:11:09.343968,15.01263400,.0003769,97.6543,233.4474,89.1665,270.9991,0,U,56324,999,7270,.52796E-4,.619E-5,0
STARLINK-5981,2023-058J,2024-08-20T13:57:48.632832,15.01263983,.0000556,97.6544,233.4580,133.4287,226.6983,0,U,56325,999,7270,.28258E-4,.304E-5,0
STARLINK-5980,2023-058K,2024-08-20T12:35:31.729056,15.01263396,.0003858,97.6542,233.3809,90.2249,269.9418,0,U,56326,999,7283,.75293E-4,.908E-5,0
STARLINK-5997,2023-058L,2024-08-20T13:50:09.650976,15.01263594,.000085,97.6545,233.4646,184.1922,175.9295,0,U,56327,999,7319,.11889E-4,.94E-6,0
STARLINK-5992,2023-058M,2024-08-20T14:00:28.791648,15.01262531,.0000762,97.6539,233.4562,106.6003,253.5305,0,U,56328,999,7319,.54615E-4,.643E-5,0
STARLINK-5984,2023-058N,2024-08-20T13:55:10.147584,15.01251394,.0000529,97.6538,233.4610,185.5455,174.5763,0,U,56329,999,7319,.1421E-3,.1766E-4,0
STARLINK-5967,2023-058P,2024-08-20T14:00:49.927680,15.01262478,.0000749,97.6546,233.4565,99.1116,261.0193,0,U,56330,999,7319,-.61135E-5,-.137E-5,0
STARLINK-5991,2023-058Q,2024-08-20T13:47:08.560896,15.01262968,.0001877,97.6546,233.4672,181.5393,178.5825,0,U,56331,999,7319,-.27396E-5,-.94E-6,0
STARLINK-5093,2023-058R,2024-08-20T14:03:07.301952,15.01350024,.000141,97.6562,233.4569,58.9949,301.1413,0,U,56332,999,7270,-.14263E-2,-.18374E-3,0
STARLINK-5553,2023-058S,2024-08-20T13:44:28.664736,15.01263216,.000209,97.6548,233.4696,167.6645,192.4631,0,U,56333,999,7319,.17575E-4,.167E-5,0
STARLINK-5548,2023-058T,2024-08-20T13:49:48.421632,15.01264199,.00015,97.6546,233.4648,190.4668,169.6525,0,U,56334,999,7270,-.96784E-5,-.183E-5,0
STARLINK-5559,2023-058U,2024-08-20T13:36:50.007744,15.01263609,.000129,97.6554,233.4772,122.4195,237.7154,0,U,56335,999,7270,.17383E-4,.164E-5,0
STARLINK-5562,2023-058V,2024-08-20T13:52:28.486272,15.01263447,.000117,97.6545,233.4627,188.7792,171.3412,0,U,56336,999,7319,-.1373E-5,-.77E-6,0
STARLINK-5561,2023-058W,2024-08-20T13:39:30.030912,15.01263286,.0001788,97.6550,233.4747,139.7858,220.3498,0,U,56337,999,7319,.87708E-4,.1068E-4,0
STARLINK-5554,2023-058X,2024-08-20T13:41:48.728832,15.01263442,.0001689,97.6550,233.4724,153.3578,206.7734,0,U,56338,999,7319,.18837E-4,.183E-5,0
STARLINK-5552,2023-058Y,2024-08-20T13:31:08.132448,15.01280201,.0001298,97.6571,233.4855,91.2843,268.8530,0,U,56339,999,7319,-.38088E-3,-.495E-4,0
STARLINK-5540,2023-058Z,2024-08-20T13:39:08.885376,15.01257640,.0002355,97.6552,233.4751,146.9786,213.1585,0,U,56340,999,7319,.10643E-3,.1308E-4,0
STARLINK-5543,2023-058AA,2024-08-20T13:36:28.793088,15.01264572,.0001504,97.6553,233.4786,133.6999,226.4350,0,U,56341,999,7319,.35439E-4,.396E-5,0
STARLINK-5955,2023-058AB,2024-08-20T13:33:48.798432,15.01264819,.0001352,97.6554,233.4814,117.7729,242.3632,0,U,56342,999,7270,.54789E-4,.645E-5,0
STARLINK-5976,2023-058AC,2024-08-20T13:23:09.996576,15.01271662,.0001721,97.6574,233.5015,84.3166,275.8254,0,U,56343,999,7319,.44035E-3,.5603E-4,0
STARLINK-5974,2023-058AD,2024-08-20T13:28:28.877376,15.01262780,.0001399,97.6583,233.4917,90.6008,269.5376,0,U,56344,999,7319,.55144E-4,.649E-5,0
STARLINK-5979,2023-058AE,2024-08-20T21:20:22.517664,15.01268269,.0001797,97.6573,233.8347,83.9909,276.1520,0,U,56345,999,7275,.13651E-3,.1695E-4,0
STARLINK-5837,2023-058AF,2024-08-20T13:25:48.890496,15.01266033,.0001751,97.6581,233.4964,93.0070,267.1354,0,U,56346,999,7319,.12579E-4,.103E-5,0
STARLINK-5829,2023-058AG,2024-08-20T13:17:50.445312,15.01247807,.0001798,97.6570,233.5102,93.2991,266.8438,0,U,56347,999,7319,-.86759E-4,-.1173E-4,0
